{
"type": "FeatureCollection",
"name": "visitor_attractions",
"features": [
{ "type": "Feature", "properties": { "placename": "Tate Modern, London", "oc_lat": 51.5074293, "oc_lng": -0.0993416, "oc_formatted": "Tate Modern, Bankside, London SE1 9TG, United Kingdom" }, "geometry": null },
{ "type": "Feature", "properties": { "placename": "Natural History Museum (South Kensington), London", "oc_lat": 51.4955742, "oc_lng": -0.1790756, "oc_formatted": "Natural History Museum, Queen's Gate, London SW7 5QL, United Kingdom" }, "geometry": null },
{ "type": "Feature", "properties": { "placename": "British Museum, London", "oc_lat": 51.5192937, "oc_lng": -0.1280177, "oc_formatted": "British Museum, Great Russell Street, London WC1B 3DG, United Kingdom" }, "geometry": null },
{ "type": "Feature", "properties": { "placename": "Royal Botanic Gardens Kew, London", "oc_lat": 51.4781044, "oc_lng": -0.2969301, "oc_formatted": "Royal Botanic Gardens, Kew, Bush Road, London TW9 3AH, United Kingdom" }, "geometry": null },
{ "type": "Feature", "properties": { "placename": "National Gallery The, London", "oc_lat": 51.508884, "oc_lng": -0.1283742, "oc_formatted": "National Gallery, St. Martin's Place, London WC2N 5DN, United Kingdom" }, "geometry": null },
{ "type": "Feature", "properties": { "placename": "Chester Zoo, England", "oc_lat": 53.2258949, "oc_lng": -2.8850737, "oc_formatted": "Chester Zoo, Elephant Bridge, Chester CH2 1LH, United Kingdom" }, "geometry": null },
{ "type": "Feature", "properties": { "placename": "RHS Garden Wisley, England", "oc_lat": 51.3150343, "oc_lng": -0.4745206, "oc_formatted": "RHS Garden Wisley, Wisley Lane, Wisley GU23 6QB, United Kingdom" }, "geometry": null },
{ "type": "Feature", "properties": { "placename": "V&A South Kensington, London", "oc_lat": 51.4968838, "oc_lng": -0.1716372, "oc_formatted": "Victoria and Albert Museum, Cromwell Road, London SW7 2RL, United Kingdom" }, "geometry": null },
{ "type": "Feature", "properties": { "placename": "Science Museum, London", "oc_lat": 51.4973983, "oc_lng": -0.1746726, "oc_formatted": "Science Museum, Observatory Road, London SW7 9EH, United Kingdom" }, "geometry": null },
{ "type": "Feature", "properties": { "placename": "Somerset House, London", "oc_lat": 51.5109351, "oc_lng": -0.1181094, "oc_formatted": "Somerset House, Strand, London WC2R 1LA, United Kingdom" }, "geometry": null },
{ "type": "Feature", "properties": { "placename": "Southbank Centre, London", "oc_lat": 51.5057323, "oc_lng": -0.1167894, "oc_formatted": "Southbank Centre, South Bank, Belvedere Road, London SE1 8YP, United Kingdom" }, "geometry": null },
{ "type": "Feature", "properties": { "placename": "Horniman Museum and Gardens, London", "oc_lat": 51.4421796, "oc_lng": -0.0613245, "oc_formatted": "Horniman Museum and Gardens, Surrey Mount, London SE23 3PF, United Kingdom" }, "geometry": null },
{ "type": "Feature", "properties": { "placename": "ZSL Whipsnade Zoo, England", "oc_lat": 51.8450428, "oc_lng": -0.5416284, "oc_formatted": "ZSL Whipsnade Zoo, B4540, Whipsnade LU6 2LG, United Kingdom" }, "geometry": null },
{ "type": "Feature", "properties": { "placename": "Longleat, England", "oc_lat": 51.1913794, "oc_lng": -2.2631769, "oc_formatted": "Longleat Safari Park, Longleat Safari Road, Warminster BA12 7NW, United Kingdom" }, "geometry": null },
{ "type": "Feature", "properties": { "placename": "Westonbirt, The National Arboretum, England", "oc_lat": 52.16045, "oc_lng": -0.70312, "oc_formatted": "England, United Kingdom" }, "geometry": null },
{ "type": "Feature", "properties": { "placename": "Attingham Park, England", "oc_lat": 52.6895967, "oc_lng": -2.6659091, "oc_formatted": "Attingham Park, Atcham, Shropshire, England, United Kingdom" }, "geometry": null },
{ "type": "Feature", "properties": { "placename": "Royal Botanic Garden Edinburgh, Scotland", "oc_lat": 55.9652854, "oc_lng": -3.2088592, "oc_formatted": "Royal Botanic Garden Edinburgh, Inverleith Row, City of Edinburgh EH3 5LT, United Kingdom" }, "geometry": null },
{ "type": "Feature", "properties": { "placename": "ZSL London Zoo, London", "oc_lat": 51.5348056, "oc_lng": -0.1548066, "oc_formatted": "London Zoo, Ormonde Terrace, London NW1 4RY, United Kingdom" }, "geometry": null },
{ "type": "Feature", "properties": { "placename": "Tower of London, London", "oc_lat": 51.5081201, "oc_lng": -0.0762224, "oc_formatted": "Tower of London, Tower Hill, London EC3N 4AB, United Kingdom" }, "geometry": null },
{ "type": "Feature", "properties": { "placename": "National Museum of Scotland, Scotland", "oc_lat": 55.9470714, "oc_lng": -3.1893355, "oc_formatted": "National Museum of Scotland, Chambers Street, City of Edinburgh EH1 1JF, United Kingdom" }, "geometry": null },
{ "type": "Feature", "properties": { "placename": "Cliveden, England", "oc_lat": 51.470093, "oc_lng": -0.2211407, "oc_formatted": "Cliveden, Embankment, London SW15 1LB, United Kingdom" }, "geometry": null },
{ "type": "Feature", "properties": { "placename": "Eden Project, England", "oc_lat": 50.3609, "oc_lng": -4.7442986, "oc_formatted": "Eden Project, Bodelva Road, St Blazey PL24 2SY, United Kingdom" }, "geometry": null },
{ "type": "Feature", "properties": { "placename": "Blenheim Palace, England", "oc_lat": 51.8419418, "oc_lng": -1.3626317, "oc_formatted": "Blenheim Palace, Grand Bridge, Woodstock OX20 1PX, United Kingdom" }, "geometry": null },
{ "type": "Feature", "properties": { "placename": "Clumber Park, England", "oc_lat": 53.2689283, "oc_lng": -1.054105, "oc_formatted": "Clumber Park, Bassetlaw, Nottinghamshire, England, United Kingdom" }, "geometry": null },
{ "type": "Feature", "properties": { "placename": "Tate Britain, London", "oc_lat": 51.4910906, "oc_lng": -0.1278403, "oc_formatted": "Tate Britain, Millbank, London SW1P 4RG, United Kingdom" }, "geometry": null },
{ "type": "Feature", "properties": { "placename": "Dunham Massey, England", "oc_lat": 53.3929507, "oc_lng": -2.4124664, "oc_formatted": "Dunham Massey, Trans Pennine Trail, Dunham Town WA14 5RF, United Kingdom" }, "geometry": null },
{ "type": "Feature", "properties": { "placename": "Royal Academy, London", "oc_lat": 51.5097509, "oc_lng": -0.140158, "oc_formatted": "Royal Academy, 6 Burlington Gardens, London W1S 3ET, United Kingdom" }, "geometry": null },
{ "type": "Feature", "properties": { "placename": "Wakehurst, England", "oc_lat": 51.067616, "oc_lng": -0.0886607, "oc_formatted": "Wakehurst Place, Selsfield Road, Ardingly RH17 6TN, United Kingdom" }, "geometry": null },
{ "type": "Feature", "properties": { "placename": "Edinburgh Zoo, Scotland", "oc_lat": 55.9454726, "oc_lng": -3.2695886, "oc_formatted": "Edinburgh Zoo, 134 Corstorphine Road, City of Edinburgh EH12 6TS, United Kingdom" }, "geometry": null },
{ "type": "Feature", "properties": { "placename": "Calke Abbey, England", "oc_lat": 52.7997811, "oc_lng": -1.4559112, "oc_formatted": "Calke Abbey, Gardeners' Tunnel, South Derbyshire DE73 7JF, United Kingdom" }, "geometry": null },
{ "type": "Feature", "properties": { "placename": "British Library, London", "oc_lat": 51.5298765, "oc_lng": -0.1277198, "oc_formatted": "British Library, 96 Euston Road, London NW1 2DB, United Kingdom" }, "geometry": null },
{ "type": "Feature", "properties": { "placename": "Roman Baths and Pump Room, England", "oc_lat": 52.16045, "oc_lng": -0.70312, "oc_formatted": "England, United Kingdom" }, "geometry": null },
{ "type": "Feature", "properties": { "placename": "Stonehenge, England", "oc_lat": 51.1788293, "oc_lng": -1.826183, "oc_formatted": "Stonehenge, The Avenue, Wiltshire SP4 7DE, United Kingdom" }, "geometry": null },
{ "type": "Feature", "properties": { "placename": "National Portrait Gallery, London, London", "oc_lat": 51.5092729, "oc_lng": -0.1281956, "oc_formatted": "National Portrait Gallery, Charing Cross Road, London WC2H 0HE, United Kingdom" }, "geometry": null },
{ "type": "Feature", "properties": { "placename": "Anglesey Abbey Gardens and Lode Mill, England", "oc_lat": 52.2371362, "oc_lng": 0.2394851, "oc_formatted": "Anglesey Abbey, Coronation Avenue, East Cambridgeshire CB25 9EJ, United Kingdom" }, "geometry": null },
{ "type": "Feature", "properties": { "placename": "Beamish, England", "oc_lat": 54.8762162, "oc_lng": -1.6493508, "oc_formatted": "Beamish DH9 0QY, United Kingdom" }, "geometry": null },
{ "type": "Feature", "properties": { "placename": "Scottish National Gallery, Scotland", "oc_lat": 55.9508809, "oc_lng": -3.1956193, "oc_formatted": "Scottish National Gallery, The Mound, City of Edinburgh, United Kingdom" }, "geometry": null },
{ "type": "Feature", "properties": { "placename": "Royal Albert Hall, London", "oc_lat": 51.5010044, "oc_lng": -0.1773946, "oc_formatted": "Royal Albert Hall, 4 Kensington Gore, London SW7 2AP, United Kingdom" }, "geometry": null },
{ "type": "Feature", "properties": { "placename": "RHS Garden Harlow Carr, England", "oc_lat": 53.9815118, "oc_lng": -1.5747596, "oc_formatted": "RHS Harlow Carr, Crag Lane, Beckwithshaw HG3 1QB, United Kingdom" }, "geometry": null },
{ "type": "Feature", "properties": { "placename": "Polesden Lacey, England", "oc_lat": 51.2574954, "oc_lng": -0.3735909, "oc_formatted": "Polesden Lacey, Nuns Walk, Mole Valley RH5 6BD, United Kingdom" }, "geometry": null },
{ "type": "Feature", "properties": { "placename": "Chatsworth, England", "oc_lat": 52.0358143, "oc_lng": -0.794128, "oc_formatted": "Chatsworth, Wolverton MK8 9AS, United Kingdom" }, "geometry": null },
{ "type": "Feature", "properties": { "placename": "Fountains Abbey and Studley Royal Water Garden, England", "oc_lat": 52.16045, "oc_lng": -0.70312, "oc_formatted": "England, United Kingdom" }, "geometry": null },
{ "type": "Feature", "properties": { "placename": "IWM London, London", "oc_lat": 51.5065199, "oc_lng": -0.0811197, "oc_formatted": "HMS Belfast, Battle Bridge Lane, London SE1 2JH, United Kingdom" }, "geometry": null },
{ "type": "Feature", "properties": { "placename": "Edinburgh Castle, Scotland", "oc_lat": 55.9486867, "oc_lng": -3.2004175, "oc_formatted": "Edinburgh Castle, Castlehill, City of Edinburgh EH1 2NG, United Kingdom" }, "geometry": null },
{ "type": "Feature", "properties": { "placename": "RHS Garden Hyde Hall, England", "oc_lat": 51.7728689, "oc_lng": -2.4289206, "oc_formatted": "Hall, United Kingdom" }, "geometry": null },
{ "type": "Feature", "properties": { "placename": "World Museum, England", "oc_lat": 52.2516184, "oc_lng": 0.1101045, "oc_formatted": "World, Merrington Place, Histon CB24 9LT, United Kingdom" }, "geometry": null },
{ "type": "Feature", "properties": { "placename": "Belton House, England", "oc_lat": 52.9430682, "oc_lng": -0.617746, "oc_formatted": "Belton House, Home Farm, Heath Lane, Belton NG32 2LU, United Kingdom" }, "geometry": null },
{ "type": "Feature", "properties": { "placename": "Kingston Lacy, England", "oc_lat": 50.8109254, "oc_lng": -2.0317652, "oc_formatted": "Kingston Lacy, Abbott Street, Pamphill BH21 4EA, United Kingdom" }, "geometry": null },
{ "type": "Feature", "properties": { "placename": "Waddesdon Manor, England", "oc_lat": 51.8425017, "oc_lng": -0.9373237, "oc_formatted": "Waddesdon Manor, North Avenue, Waddesdon HP18 0JH, United Kingdom" }, "geometry": null },
{ "type": "Feature", "properties": { "placename": "St Paul's Cathedral, London", "oc_lat": 51.5137871, "oc_lng": -0.0984506, "oc_formatted": "St Paul's Cathedral, Blackfriars, Saint Paul's Church Yard, London EC4M 8AD, United Kingdom" }, "geometry": null },
{ "type": "Feature", "properties": { "placename": "Kelvingrove Museum, Scotland", "oc_lat": 55.8685825, "oc_lng": -4.2906278, "oc_formatted": "Kelvingrove Art Gallery and Museum, Argyle Street, Glasgow G3 8AG, United Kingdom" }, "geometry": null },
{ "type": "Feature", "properties": { "placename": "Stourhead, England", "oc_lat": 51.1079874, "oc_lng": -2.3190082, "oc_formatted": "Stourhead House, Stourton BA12 6QF, United Kingdom" }, "geometry": null },
{ "type": "Feature", "properties": { "placename": "Sheffield Park and Garden, England", "oc_lat": 50.9988149, "oc_lng": 0.0270076, "oc_formatted": "Sheffield Park, Spring Farm, North Hall Lane, Fletching TN22 3QX, United Kingdom" }, "geometry": null },
{ "type": "Feature", "properties": { "placename": "Riverside Museum, Scotland", "oc_lat": 55.8652126, "oc_lng": -4.3061814, "oc_formatted": "Riverside Museum, 100 Pointhouse Place, Glasgow G3 8RS, United Kingdom" }, "geometry": null },
{ "type": "Feature", "properties": { "placename": "Nymans, England", "oc_lat": 51.0480305, "oc_lng": -0.1959549, "oc_formatted": "Nymans, Mid Sussex, West Sussex, England, United Kingdom" }, "geometry": null },
{ "type": "Feature", "properties": { "placename": "Leeds Castle, England", "oc_lat": 51.2484465, "oc_lng": 0.6300228, "oc_formatted": "Leeds Castle, Ashford Road, Maidstone ME17 1PZ, United Kingdom" }, "geometry": null },
{ "type": "Feature", "properties": { "placename": "Ashmolean Museum of Art and Archaeology, England", "oc_lat": 52.16045, "oc_lng": -0.70312, "oc_formatted": "England, United Kingdom" }, "geometry": null },
{ "type": "Feature", "properties": { "placename": "Lotherton, England", "oc_lat": 53.8185033, "oc_lng": -1.3185422, "oc_formatted": "Lotherton Hall, Copley Lane, Saxton LS25 3EA, United Kingdom" }, "geometry": null },
{ "type": "Feature", "properties": { "placename": "Wimpole Estate, England", "oc_lat": 52.128572, "oc_lng": -0.0488834, "oc_formatted": "Wimpole Estate, South Cambridgeshire, Cambridgeshire, England, United Kingdom" }, "geometry": null },
{ "type": "Feature", "properties": { "placename": "Hampton Court Palace, London", "oc_lat": 51.4036839, "oc_lng": -0.3376964, "oc_formatted": "Hampton Court Palace, Serving Place, London KT8 9AU, United Kingdom" }, "geometry": null },
{ "type": "Feature", "properties": { "placename": "National Railway Museum, England", "oc_lat": 53.9604953, "oc_lng": -1.096109, "oc_formatted": "National Railway Museum, Leeman Road, York YO26 4XJ, United Kingdom" }, "geometry": null },
{ "type": "Feature", "properties": { "placename": "Bodleian Libraries, England", "oc_lat": 51.7467489, "oc_lng": -1.2687107, "oc_formatted": "Osney One Building, Osney Mead, Oxford OX2 0EW, United Kingdom" }, "geometry": null },
{ "type": "Feature", "properties": { "placename": "Westminster Abbey, London", "oc_lat": 51.4993619, "oc_lng": -0.1273998, "oc_formatted": "Westminster Abbey, Westminster, 20 Dean's Yard, London SW1P 3PA, United Kingdom" }, "geometry": null },
{ "type": "Feature", "properties": { "placename": "Tyntesfield, England", "oc_lat": 51.441708, "oc_lng": -2.7188995, "oc_formatted": "Tyntesfield Visitor Centre, Wraxall BS48 1NX, United Kingdom" }, "geometry": null },
{ "type": "Feature", "properties": { "placename": "Stowe, England", "oc_lat": 52.0370191, "oc_lng": -1.0170848, "oc_formatted": "Stowe, Dadford, Buckinghamshire, England, United Kingdom" }, "geometry": null },
{ "type": "Feature", "properties": { "placename": "Museum of Liverpool, England", "oc_lat": 53.402959, "oc_lng": -2.9956046, "oc_formatted": "Museum of Liverpool, Liverpool L3 1BW, United Kingdom" }, "geometry": null },
{ "type": "Feature", "properties": { "placename": "Mottisfont, England", "oc_lat": 51.0471655, "oc_lng": -1.5427478, "oc_formatted": "Mottisfont, Test Valley, Hampshire, England, United Kingdom" }, "geometry": null },
{ "type": "Feature", "properties": { "placename": "Ickworth, England", "oc_lat": 52.2228288, "oc_lng": 0.6538289, "oc_formatted": "Ickworth, West Suffolk, Suffolk, England, United Kingdom" }, "geometry": null },
{ "type": "Feature", "properties": { "placename": "UK Parliament, London", "oc_lat": 51.4994252, "oc_lng": -0.1244478, "oc_formatted": "Palace of Westminster, Westminster, Lower Waiting Hall, London SW1A 0AA, United Kingdom" }, "geometry": null },
{ "type": "Feature", "properties": { "placename": "Old Royal Naval College, London", "oc_lat": 51.4829661, "oc_lng": -0.0062577, "oc_formatted": "Old Royal Naval College, King William Walk, London SE10 9HU, United Kingdom" }, "geometry": null },
{ "type": "Feature", "properties": { "placename": "Museum of London, London", "oc_lat": 51.517865, "oc_lng": -0.096307, "oc_formatted": "Museum of London, Barbican, 150 London Wall, London EC2Y 5HN, United Kingdom" }, "geometry": null },
{ "type": "Feature", "properties": { "placename": "Gibside, England", "oc_lat": 54.9225703, "oc_lng": -1.7199512, "oc_formatted": "Gibside, The Long Walk, Rowlands Gill NE16 6BG, United Kingdom" }, "geometry": null },
{ "type": "Feature", "properties": { "placename": "Cambridge University Botanic Garden, England", "oc_lat": 52.1934149, "oc_lng": 0.1280912, "oc_formatted": "Cambridge University Botanic Garden, St Eligius Street, Cambridge CB2 1JE, United Kingdom" }, "geometry": null },
{ "type": "Feature", "properties": { "placename": "The Royal Shakespeare Theatre and Swan Theatre, England", "oc_lat": 52.1906111, "oc_lng": -1.7037986, "oc_formatted": "Royal Shakespeare Theatre, Waterside, Stratford-upon-Avon CV37 6BB, United Kingdom" }, "geometry": null },
{ "type": "Feature", "properties": { "placename": "RAF Museum London, London", "oc_lat": 51.5980955, "oc_lng": -0.2388372, "oc_formatted": "RAF Museum, Grahame Park, M1, London NW7 2QR, United Kingdom" }, "geometry": null },
{ "type": "Feature", "properties": { "placename": "The Royal Opera House Covent Garden, London", "oc_lat": 51.5128736, "oc_lng": -0.1225437, "oc_formatted": "Royal Opera House, Bow Street, London WC2E 9DD, United Kingdom" }, "geometry": null },
{ "type": "Feature", "properties": { "placename": "Croome, England", "oc_lat": 52.1049162, "oc_lng": -2.1651659, "oc_formatted": "Croome, Wilderness Walk, Malvern Hills WR8 9DW, United Kingdom" }, "geometry": null },
{ "type": "Feature", "properties": { "placename": "National Museum Royal Navy, England", "oc_lat": 52.16045, "oc_lng": -0.70312, "oc_formatted": "England, United Kingdom" }, "geometry": null },
{ "type": "Feature", "properties": { "placename": "Culloden Visitor Centre, Scotland", "oc_lat": 57.4771538, "oc_lng": -4.0925714, "oc_formatted": "Culloden Battlefield Visitor Centre, B9006, Newlands of Culloden IV2 5EU, United Kingdom" }, "geometry": null },
{ "type": "Feature", "properties": { "placename": "Merseyside Maritime Museum, England", "oc_lat": 53.4013379, "oc_lng": -2.9927496, "oc_formatted": "Merseyside Maritime Museum, Hartley's Quay, Liverpool L3 4AN, United Kingdom" }, "geometry": null },
{ "type": "Feature", "properties": { "placename": "Shugborough Estate, England", "oc_lat": 52.16045, "oc_lng": -0.70312, "oc_formatted": "England, United Kingdom" }, "geometry": null },
{ "type": "Feature", "properties": { "placename": "Quarry Bank, England", "oc_lat": 52.4733135, "oc_lng": -2.1014635, "oc_formatted": "Quarry Bank DY5 1EA, United Kingdom" }, "geometry": null },
{ "type": "Feature", "properties": { "placename": "Castle Howard, England", "oc_lat": 54.1215627, "oc_lng": -0.9066527, "oc_formatted": "Castle Howard, Mans Lane, Ryedale YO60 7DA, United Kingdom" }, "geometry": null },
{ "type": "Feature", "properties": { "placename": "Tower Bridge, London", "oc_lat": 51.5055302, "oc_lng": -0.0754144, "oc_formatted": "Tower Bridge, London SE1 2LY, United Kingdom" }, "geometry": null },
{ "type": "Feature", "properties": { "placename": "Oxford University Museum of Natural History, England", "oc_lat": 51.7587075, "oc_lng": -1.2556685, "oc_formatted": "Oxford University Museum of Natural History, Parks Road, Oxford OX1 3PW, United Kingdom" }, "geometry": null },
{ "type": "Feature", "properties": { "placename": "Wallington, England", "oc_lat": 51.357945, "oc_lng": -0.1495621, "oc_formatted": "London SM6 0LT, United Kingdom" }, "geometry": null },
{ "type": "Feature", "properties": { "placename": "Glenfinnan Monument, Scotland", "oc_lat": 56.8691742, "oc_lng": -5.4370497, "oc_formatted": "Glenfinnan Monument, Road to the Isles, Glenfinnan PH37 4LT, United Kingdom" }, "geometry": null },
{ "type": "Feature", "properties": { "placename": "Dyrham Park, England", "oc_lat": 51.4800686, "oc_lng": -2.3693426, "oc_formatted": "Dyrham Park, Dyrham and Hinton, Dyrham, South Gloucestershire, England, United Kingdom" }, "geometry": null },
{ "type": "Feature", "properties": { "placename": "RHS Garden Rosemoor, England", "oc_lat": 50.9385037, "oc_lng": -4.1372092, "oc_formatted": "RHS Garden Rosemoor, A3124, Great Torrington EX38 8, United Kingdom" }, "geometry": null },
{ "type": "Feature", "properties": { "placename": "Titanic Belfast, Northern Ireland", "oc_lat": 54.6080858, "oc_lng": -5.9100186, "oc_formatted": "Titanic Belfast, 1 Olympic Way Queens Road, Belfast BT3 9DP, United Kingdom" }, "geometry": null },
{ "type": "Feature", "properties": { "placename": "Tate Liverpool, England", "oc_lat": 53.4008005, "oc_lng": -2.9943762, "oc_formatted": "Tate Liverpool, Britannia Pavillion, Liverpool L3 4BB, United Kingdom" }, "geometry": null },
{ "type": "Feature", "properties": { "placename": "Charlecote Park, England", "oc_lat": 52.6848204, "oc_lng": -2.476752, "oc_formatted": "Charlecote Park, Dawley TF3 5HD, United Kingdom" }, "geometry": null },
{ "type": "Feature", "properties": { "placename": "WWT Slimbridge, England", "oc_lat": 51.7401814, "oc_lng": -2.4080948, "oc_formatted": "WWT Slimbridge, Newgrounds Lane, Slimbridge GL2 7BT, United Kingdom" }, "geometry": null },
{ "type": "Feature", "properties": { "placename": "Mount Stewart, Northern Ireland", "oc_lat": 54.550972, "oc_lng": -5.5939508, "oc_formatted": "Mount Stewart BT22 2AD, United Kingdom" }, "geometry": null },
{ "type": "Feature", "properties": { "placename": "Hardwick, England", "oc_lat": 52.2105528, "oc_lng": 0.0078691, "oc_formatted": "Hardwick CB23 7QS, United Kingdom" }, "geometry": null },
{ "type": "Feature", "properties": { "placename": "Chartwell, England", "oc_lat": 51.2443661, "oc_lng": 0.083299, "oc_formatted": "Chartwell, Mapleton Road, French Street TN16 1PP, United Kingdom" }, "geometry": null },
{ "type": "Feature", "properties": { "placename": "Durham Cathedral, England", "oc_lat": 54.7732619, "oc_lng": -1.5763333, "oc_formatted": "Durham Cathedral, Dun Cow Lane, Durham DH1 3RS, United Kingdom" }, "geometry": null },
{ "type": "Feature", "properties": { "placename": "Kedleston, England", "oc_lat": 52.968111, "oc_lng": -1.5528275, "oc_formatted": "Amber Valley, Derbyshire, England, United Kingdom" }, "geometry": null },
{ "type": "Feature", "properties": { "placename": "The Vyne, England", "oc_lat": 51.3068863, "oc_lng": -1.0886817, "oc_formatted": "The Vyne, Vyne Road, Sherborne St John RG24 9JA, United Kingdom" }, "geometry": null },
{ "type": "Feature", "properties": { "placename": "Museum of Science and Industry, England", "oc_lat": 53.47721, "oc_lng": -2.2561966, "oc_formatted": "Museum of Science and Industry, Water Street, Manchester M3 4JQ, United Kingdom" }, "geometry": null },
{ "type": "Feature", "properties": { "placename": "Scottish National Gallery of Modern Art, Scotland", "oc_lat": 55.5970848, "oc_lng": -2.4322116, "oc_formatted": "Kelso Abbey, Abbey Row, Kelso TD5 7JF, United Kingdom" }, "geometry": null },
{ "type": "Feature", "properties": { "placename": "York Minster, England", "oc_lat": 53.962363, "oc_lng": -1.0820891, "oc_formatted": "York Minster, Minster Yard, York YO1 7HH, United Kingdom" }, "geometry": null },
{ "type": "Feature", "properties": { "placename": "RAF Museum Cosford, England", "oc_lat": 52.6443246, "oc_lng": -2.3155198, "oc_formatted": "RAF Museum Cosford, Neachley Lane, Cosford TF11 8UP, United Kingdom" }, "geometry": null },
{ "type": "Feature", "properties": { "placename": "The Wallace Collection, London", "oc_lat": 51.5175189, "oc_lng": -0.1530649, "oc_formatted": "The Wallace Collection, Manchester Square, London W1U 3BN, United Kingdom" }, "geometry": null },
{ "type": "Feature", "properties": { "placename": "Baddesley Clinton, England", "oc_lat": 52.3410016, "oc_lng": -1.7087911, "oc_formatted": "Baddesley Clinton, Hay Wood Lane, Rowington B93 0DG, United Kingdom" }, "geometry": null },
{ "type": "Feature", "properties": { "placename": "Hanbury Hall and Gardens, England", "oc_lat": 52.2718283, "oc_lng": -2.0831809, "oc_formatted": "Hanbury Hall, School Road, Hanbury B60 4BS, United Kingdom" }, "geometry": null },
{ "type": "Feature", "properties": { "placename": "Beaulieu, England", "oc_lat": 50.7997595, "oc_lng": -1.4401199, "oc_formatted": "Beaulieu, New Forest, Hampshire, England, United Kingdom" }, "geometry": null },
{ "type": "Feature", "properties": { "placename": "Cragside, England", "oc_lat": 55.3136043, "oc_lng": -1.8856736, "oc_formatted": "Cragside, Carriage Drive, Rothbury NE65 7PU, United Kingdom" }, "geometry": null },
{ "type": "Feature", "properties": { "placename": "Blickling, England", "oc_lat": 52.8099215, "oc_lng": 1.2259634, "oc_formatted": "Blickling NR11 6NJ, United Kingdom" }, "geometry": null },
{ "type": "Feature", "properties": { "placename": "Giants Causeway, Northern Ireland", "oc_lat": 55.2408214, "oc_lng": -6.5116386, "oc_formatted": "Giant's Causeway, Causeway Coastal Way, Antrim BT57 8SU, United Kingdom" }, "geometry": null },
{ "type": "Feature", "properties": { "placename": "IWM Duxford, England", "oc_lat": 52.0918936, "oc_lng": 0.1299465, "oc_formatted": "IWM Duxford, Royston Road, Heathfield CB22 4QR, United Kingdom" }, "geometry": null },
{ "type": "Feature", "properties": { "placename": "Packwood House, England", "oc_lat": 52.3479181, "oc_lng": -1.7466321, "oc_formatted": "Packwood House, Packwood Road, Lapworth B94 6AT, United Kingdom" }, "geometry": null },
{ "type": "Feature", "properties": { "placename": "London Transport Museum, London", "oc_lat": 51.5119779, "oc_lng": -0.1212197, "oc_formatted": "London Transport Museum, Covent Garden Piazza, London WC2E 7BB, United Kingdom" }, "geometry": null },
{ "type": "Feature", "properties": { "placename": "Corfe Castle, England", "oc_lat": 50.638888, "oc_lng": -2.0572257, "oc_formatted": "Corfe Castle BH20 5ED, United Kingdom" }, "geometry": null },
{ "type": "Feature", "properties": { "placename": "Killerton, England", "oc_lat": 50.7151573, "oc_lng": -3.4679374, "oc_formatted": "4 Park Five, Exeter EX2 7HU, United Kingdom" }, "geometry": null },
{ "type": "Feature", "properties": { "placename": "Birmingham Museum and Art Gallery, England", "oc_lat": 52.4804459, "oc_lng": -1.9033176, "oc_formatted": "Birmingham Museum & Art Gallery, Chamberlain Square, Attwood Green B3 3DH, United Kingdom" }, "geometry": null },
{ "type": "Feature", "properties": { "placename": "Culzean Castle & Country Park, Scotland", "oc_lat": 54.865111, "oc_lng": -7.0807098, "oc_formatted": "Park, United Kingdom" }, "geometry": null },
{ "type": "Feature", "properties": { "placename": "Tintagel Castle, England", "oc_lat": 50.6679737, "oc_lng": -4.7599283, "oc_formatted": "Tintagel Castle, Tintagel Castle Bridge, Tintagel PL34 0DQ, United Kingdom" }, "geometry": null },
{ "type": "Feature", "properties": { "placename": "National War Museum Edinburgh, Scotland", "oc_lat": 55.948853, "oc_lng": -3.2019126, "oc_formatted": "National War Museum, King's Stables Road, City of Edinburgh EH1 2JY, United Kingdom" }, "geometry": null },
{ "type": "Feature", "properties": { "placename": "Oxford Botanical Gardens and Arboretum, England", "oc_lat": 52.16045, "oc_lng": -0.70312, "oc_formatted": "England, United Kingdom" }, "geometry": null },
{ "type": "Feature", "properties": { "placename": "Dunster Castle, England", "oc_lat": 51.1816635, "oc_lng": -3.4436462, "oc_formatted": "Dunster Castle, Castle Hill, Dunster TA24 6SQ, United Kingdom" }, "geometry": null },
{ "type": "Feature", "properties": { "placename": "Dover Castle, England", "oc_lat": 51.1289759, "oc_lng": 1.3228764, "oc_formatted": "Dover Castle, Marine Parade, Dover CT16 1LU, United Kingdom" }, "geometry": null },
{ "type": "Feature", "properties": { "placename": "Harewood House Trust, England", "oc_lat": 53.8968389, "oc_lng": -1.5273493, "oc_formatted": "Harewood House & Gardens, Sandy Gate, Harewood LS17 9LG, United Kingdom" }, "geometry": null },
{ "type": "Feature", "properties": { "placename": "WWT Martin Mere, England", "oc_lat": 53.6184473, "oc_lng": -2.8687865, "oc_formatted": "Friends of WWT Martin Mere Harrier Hide, Reedbed Walk, West Lancashire L40 0TA, United Kingdom" }, "geometry": null },
{ "type": "Feature", "properties": { "placename": "Ulster Museum, Northern Ireland", "oc_lat": 54.5822849, "oc_lng": -5.9353257, "oc_formatted": "Ulster Museum, Stranmillis Road, Belfast BT9 5AB, United Kingdom" }, "geometry": null },
{ "type": "Feature", "properties": { "placename": "V&A Dundee, Scotland", "oc_lat": 56.4571976, "oc_lng": -2.9670097, "oc_formatted": "V&A Dundee, 1 Riverside Esplanade, Dundee DD1 4EZ, United Kingdom" }, "geometry": null },
{ "type": "Feature", "properties": { "placename": "Shakespeare's Globe, London", "oc_lat": 51.5081048, "oc_lng": -0.0971968, "oc_formatted": "Shakespeare's Globe, Bankside, 21 New Globe Walk, London SE1 9DT, United Kingdom" }, "geometry": null },
{ "type": "Feature", "properties": { "placename": "Churchill War Rooms, London", "oc_lat": 51.5022017, "oc_lng": -0.1293491, "oc_formatted": "Churchill Museum and Cabinet War Rooms, Westminster, King Charles Street, London SW1A 2AQ, United Kingdom" }, "geometry": null },
{ "type": "Feature", "properties": { "placename": "Pitt Rivers Museum, England", "oc_lat": 51.7587594, "oc_lng": -1.2550636, "oc_formatted": "Pitt Rivers Museum, 3 Parks Road, Oxford OX1 3PP, United Kingdom" }, "geometry": null },
{ "type": "Feature", "properties": { "placename": "Royal Museums Greenwich, London", "oc_lat": 51.4773622, "oc_lng": -0.0008453, "oc_formatted": "Royal Observatory Greenwich, Blackheath Avenue, London SE10 8XJ, United Kingdom" }, "geometry": null },
{ "type": "Feature", "properties": { "placename": "International Slavery Museum, England", "oc_lat": 53.4012117, "oc_lng": -2.9932201, "oc_formatted": "International Slavery Museum, Hartley's Quay, Liverpool L3 4AN, United Kingdom" }, "geometry": null },
{ "type": "Feature", "properties": { "placename": "Lacock, England", "oc_lat": 51.413844, "oc_lng": -2.1208721, "oc_formatted": "Lacock SN15 2LG, United Kingdom" }, "geometry": null },
{ "type": "Feature", "properties": { "placename": "National Science and Media Museum, England", "oc_lat": 53.7906208, "oc_lng": -1.7558946, "oc_formatted": "National Science and Media Museum, Pictureville, Bradford BD1 1NQ, United Kingdom" }, "geometry": null },
{ "type": "Feature", "properties": { "placename": "Wrest Park, England", "oc_lat": 52.0080212, "oc_lng": -0.411898, "oc_formatted": "Wrest Park, A6, Silsoe MK45 4DP, United Kingdom" }, "geometry": null },
{ "type": "Feature", "properties": { "placename": "Bodnant Garden, Wales", "oc_lat": 53.2314164, "oc_lng": -3.8008978, "oc_formatted": "Bodnant Gardens, Llanrwst Road, Pentrefelin LL28 5RD, United Kingdom" }, "geometry": null },
{ "type": "Feature", "properties": { "placename": "Osborne, England", "oc_lat": 50.7506797, "oc_lng": -1.2688328, "oc_formatted": "Osborne House, Garden and Grounds, East Cowes, Isle of Wight, England, United Kingdom" }, "geometry": null },
{ "type": "Feature", "properties": { "placename": "WWT London, London", "oc_lat": 51.5072648, "oc_lng": -0.1278328, "oc_formatted": "London, United Kingdom" }, "geometry": null },
{ "type": "Feature", "properties": { "placename": "Leeds Art Gallery, England", "oc_lat": 53.8000274, "oc_lng": -1.5481087, "oc_formatted": "Leeds Art Gallery, Arena Quarter, Victoria Gardens, Leeds LS1 3AB, United Kingdom" }, "geometry": null },
{ "type": "Feature", "properties": { "placename": "The Fitzwilliam Museum, England", "oc_lat": 52.1998523, "oc_lng": 0.1197387, "oc_formatted": "Fitzwilliam Museum, Trumpington Street, Cambridge CB2 1RB, United Kingdom" }, "geometry": null },
{ "type": "Feature", "properties": { "placename": "Trelissick, England", "oc_lat": 50.2159309, "oc_lng": -5.0301158, "oc_formatted": "Trelissick Garden, B3289, Feock TR3 6QH, United Kingdom" }, "geometry": null },
{ "type": "Feature", "properties": { "placename": "Highland Wildlife Park, Scotland", "oc_lat": 57.1098953, "oc_lng": -3.9758201, "oc_formatted": "Highland Wildlife Park, Kincraig PH21 1NL, United Kingdom" }, "geometry": null },
{ "type": "Feature", "properties": { "placename": "Crathes Castle, Scotland", "oc_lat": 57.0615164, "oc_lng": -2.4398237, "oc_formatted": "Crathes Castle, North Deeside Road, Crathes AB31 5QE, United Kingdom" }, "geometry": null },
{ "type": "Feature", "properties": { "placename": "St Michael's Mount, England", "oc_lat": 50.1165723, "oc_lng": -5.4781842, "oc_formatted": "St Michael's Mount Castle, Tidal Causeway, Marazion TR17 0EN, United Kingdom" }, "geometry": null },
{ "type": "Feature", "properties": { "placename": "Speke Hall, England", "oc_lat": 53.3367254, "oc_lng": -2.8742464, "oc_formatted": "Speke Hall, The Walk, Liverpool L24 1XD, United Kingdom" }, "geometry": null },
{ "type": "Feature", "properties": { "placename": "Walker Art Gallery, England", "oc_lat": 53.410018, "oc_lng": -2.9796289, "oc_formatted": "Walker Art Gallery, William Brown Street, Liverpool L3 8EL, United Kingdom" }, "geometry": null },
{ "type": "Feature", "properties": { "placename": "Gallery of Modern Art, Scotland", "oc_lat": 55.8601675, "oc_lng": -4.2526408, "oc_formatted": "Gallery of Modern Art, Royal Exchange Square, Glasgow G1 3AG, United Kingdom" }, "geometry": null },
{ "type": "Feature", "properties": { "placename": "Glencoe Visitor Centre, Scotland", "oc_lat": 56.671167, "oc_lng": -5.0818637, "oc_formatted": "Glencoe Visitor Centre, A82, Glencoe PH49 4HX, United Kingdom" }, "geometry": null },
{ "type": "Feature", "properties": { "placename": "Saltram, England", "oc_lat": 50.3814963, "oc_lng": -4.0818127, "oc_formatted": "Saltram House, Devon Expressway, Plympton PL7 2FB, United Kingdom" }, "geometry": null },
{ "type": "Feature", "properties": { "placename": "V&A Museum of Childhood, London", "oc_lat": 51.529063, "oc_lng": -0.0548456, "oc_formatted": "V&A Museum of Childhood, Cambridge Heath Road, London E2 9PA, United Kingdom" }, "geometry": null },
{ "type": "Feature", "properties": { "placename": "Burns Birthplace Museum, Scotland", "oc_lat": 56.0, "oc_lng": -4.0, "oc_formatted": "Scotland, United Kingdom" }, "geometry": null },
{ "type": "Feature", "properties": { "placename": "Tate St Ives, England", "oc_lat": 50.2146922, "oc_lng": -5.4824848, "oc_formatted": "The Tate: St Ives, Back Road West, St Ives TR26, United Kingdom" }, "geometry": null },
{ "type": "Feature", "properties": { "placename": "Scottish National Portrait Gallery, Scotland", "oc_lat": 55.9554654, "oc_lng": -3.1935919, "oc_formatted": "Scottish National Portrait Gallery, 1 Queen Street, City of Edinburgh EH2 1JD, United Kingdom" }, "geometry": null },
{ "type": "Feature", "properties": { "placename": "Stirling Castle, Scotland", "oc_lat": 56.1240308, "oc_lng": -3.9480016, "oc_formatted": "Stirling Castle, Snowdon, Stirling FK8 1EJ, United Kingdom" }, "geometry": null },
{ "type": "Feature", "properties": { "placename": "Museum of London (Docklands), London", "oc_lat": 51.5076342, "oc_lng": -0.0238687, "oc_formatted": "Museum of London Docklands, Canary Wharf, Hertsmere Road, London E14 4AL, United Kingdom" }, "geometry": null },
{ "type": "Feature", "properties": { "placename": "Audley End House and Gardens, England", "oc_lat": 52.0208043, "oc_lng": 0.220773, "oc_formatted": "Audley End House and Gardens, Audley End Road, Saffron Walden CB11 4JA, United Kingdom" }, "geometry": null },
{ "type": "Feature", "properties": { "placename": "IWM North, England", "oc_lat": 53.4694386, "oc_lng": -2.2986007, "oc_formatted": "Imperial War Museum North, Trafford Wharf Road, Gorse Hill M17 1TZ, United Kingdom" }, "geometry": null },
{ "type": "Feature", "properties": { "placename": "1066 Battle of Hastings, Abbey and Battlefield, England", "oc_lat": 54.3802377, "oc_lng": -2.8559077, "oc_formatted": "Ings, United Kingdom" }, "geometry": null },
{ "type": "Feature", "properties": { "placename": "Knole, England", "oc_lat": 51.0229332, "oc_lng": -2.7381728, "oc_formatted": "South Somerset TA10 9JB, United Kingdom" }, "geometry": null },
{ "type": "Feature", "properties": { "placename": "Whitby Abbey, England", "oc_lat": 54.4883126, "oc_lng": -0.6074923, "oc_formatted": "Whitby Abbey, Church Lane, Whitby YO22 4DP, United Kingdom" }, "geometry": null },
{ "type": "Feature", "properties": { "placename": "Thinktank, Birmingham Science Museum, England", "oc_lat": 52.4813678, "oc_lng": -1.8980725, "oc_formatted": "Birmingham, United Kingdom" }, "geometry": null },
{ "type": "Feature", "properties": { "placename": "Kenilworth Castle and Elizabethan Garden, England", "oc_lat": 52.16045, "oc_lng": -0.70312, "oc_formatted": "England, United Kingdom" }, "geometry": null },
{ "type": "Feature", "properties": { "placename": "Shakespeare's Birthplace, England", "oc_lat": 52.1938722, "oc_lng": -1.7080272, "oc_formatted": "Shakespeare's Birthplace, Henley Street, Stratford-upon-Avon CV37 6QW, United Kingdom" }, "geometry": null },
{ "type": "Feature", "properties": { "placename": "Holkham Hall, England", "oc_lat": 52.9501326, "oc_lng": 0.8030172, "oc_formatted": "Holkham Hall, Holkham Park, North Norfolk NR23 1AB, United Kingdom" }, "geometry": null },
{ "type": "Feature", "properties": { "placename": "Kettle's Yard, England", "oc_lat": 52.2109073, "oc_lng": 0.1143113, "oc_formatted": "Garden Kitchen at Kettle's Yard, 6-8 Castle Street, Cambridge CB3 0AQ, United Kingdom" }, "geometry": null },
{ "type": "Feature", "properties": { "placename": "Urquhart Castle, Scotland", "oc_lat": 57.3241044, "oc_lng": -4.4416789, "oc_formatted": "Urquhart Castle, Urquhart Castle Drive, Highland IV63 6XL, United Kingdom" }, "geometry": null },
{ "type": "Feature", "properties": { "placename": "Canterbury Cathedral, England", "oc_lat": 51.2798001, "oc_lng": 1.0827801, "oc_formatted": "Canterbury Cathedral, The Precincts, Canterbury CT1 2EG, United Kingdom" }, "geometry": null },
{ "type": "Feature", "properties": { "placename": "Walmer Castle and Gardens, England", "oc_lat": 51.2000222, "oc_lng": 1.4001544, "oc_formatted": "Walmer Castle, Kingsdown Road, Walmer CT14 7LH, United Kingdom" }, "geometry": null },
{ "type": "Feature", "properties": { "placename": "Corrieshalloch Gorge, Scotland", "oc_lat": 57.757699, "oc_lng": -5.0232214, "oc_formatted": "Corrieshalloch Gorge, A835, Auchlunachan IV23 2RT, United Kingdom" }, "geometry": null },
{ "type": "Feature", "properties": { "placename": "Kensington Palace, London", "oc_lat": 51.505099, "oc_lng": -0.1876332, "oc_formatted": "Kensington Palace, Palace Avenue, London W8 4PX, United Kingdom" }, "geometry": null },
{ "type": "Feature", "properties": { "placename": "National Maritime Museum Cornwall, England", "oc_lat": 50.1515066, "oc_lng": -5.0616202, "oc_formatted": "National Maritime Museum Cornwall, Cambeltown Way, Falmouth TR11 3XP, United Kingdom" }, "geometry": null },
{ "type": "Feature", "properties": { "placename": "Ben Lomond, Scotland", "oc_lat": 56.1903623, "oc_lng": -4.6332874, "oc_formatted": "Ben Lomond, Stirling G63 0AR, United Kingdom" }, "geometry": null },
{ "type": "Feature", "properties": { "placename": "WWT Arundel, England", "oc_lat": 50.8631276, "oc_lng": -0.5510865, "oc_formatted": "WWT Visitor Centre, Mill Road, Arundel BN18 9PB, United Kingdom" }, "geometry": null },
{ "type": "Feature", "properties": { "placename": "Natural History Museum (Tring), England", "oc_lat": 51.49603, "oc_lng": -0.1764, "oc_formatted": "Natural History Museum, Royal Kensington and Chelsea, London, United Kingdom" }, "geometry": null },
{ "type": "Feature", "properties": { "placename": "Brodie Castle, Scotland", "oc_lat": 57.5984735, "oc_lng": -3.708971, "oc_formatted": "Brodie Castle, Muirside Road, Brodie IV36 2, United Kingdom" }, "geometry": null },
{ "type": "Feature", "properties": { "placename": "WWT Washington, England", "oc_lat": 54.8997443, "oc_lng": -1.4851442, "oc_formatted": "WWT visitor parking, Barmston Lane, Washington NE38 8LE, United Kingdom" }, "geometry": null },
{ "type": "Feature", "properties": { "placename": "Mary Rose, The, England", "oc_lat": 52.0537881, "oc_lng": -0.6914802, "oc_formatted": "Mary Rose, Moulsoe MK10 7FX, United Kingdom" }, "geometry": null },
{ "type": "Feature", "properties": { "placename": "Locomotion, England", "oc_lat": 54.6240487, "oc_lng": -1.6299827, "oc_formatted": "Locomotion - The National Railway Museum at Shildon, Locomotion Way, Newton Aycliffe DL4 2GP, United Kingdom" }, "geometry": null },
{ "type": "Feature", "properties": { "placename": "Carisbrooke Castle, England", "oc_lat": 50.6875557, "oc_lng": -1.3126773, "oc_formatted": "Carisbrooke Castle, Millers Lane, Carisbrooke PO30 1PE, United Kingdom" }, "geometry": null },
{ "type": "Feature", "properties": { "placename": "Threave Garden, Scotland", "oc_lat": 54.9249359, "oc_lng": -3.9479368, "oc_formatted": "Threave Garden (NTS), Old Military Road, Castle Douglas DG7 1RY, United Kingdom" }, "geometry": null },
{ "type": "Feature", "properties": { "placename": "Eltham Palace and Gardens, London", "oc_lat": 51.4470594, "oc_lng": 0.0478316, "oc_formatted": "Eltham Palace, Court Yard, London SE9 5QE, United Kingdom" }, "geometry": null },
{ "type": "Feature", "properties": { "placename": "Balmacara Estate & Lochalsh Woodland Garden, Scotland", "oc_lat": 56.0, "oc_lng": -4.0, "oc_formatted": "Scotland, United Kingdom" }, "geometry": null },
{ "type": "Feature", "properties": { "placename": "Sudbury Hall, England", "oc_lat": 52.8861647, "oc_lng": -1.7655384, "oc_formatted": "Sudbury Hall, Main Road, Sudbury DE6 5HT, United Kingdom" }, "geometry": null },
{ "type": "Feature", "properties": { "placename": "Lady Lever Art Gallery, England", "oc_lat": 53.3557654, "oc_lng": -2.9993118, "oc_formatted": "Lady Lever Art Gallery, Queen Mary's Drive, Port Sunlight CH62 5DZ, United Kingdom" }, "geometry": null },
{ "type": "Feature", "properties": { "placename": "SS Great Britain, England", "oc_lat": 51.4491604, "oc_lng": -2.6083968, "oc_formatted": "SS Great Britain, Brunel Square, Bristol BS1 6TY, United Kingdom" }, "geometry": null },
{ "type": "Feature", "properties": { "placename": "Lanhydrock, England", "oc_lat": 50.4418864, "oc_lng": -4.7026463, "oc_formatted": "Lanhydrock, England, United Kingdom" }, "geometry": null },
{ "type": "Feature", "properties": { "placename": "Housesteads Roman Fort - Hadrian's Wall, England", "oc_lat": 52.6566672, "oc_lng": -1.8568719, "oc_formatted": "Wall, United Kingdom" }, "geometry": null },
{ "type": "Feature", "properties": { "placename": "HMS Belfast, London", "oc_lat": 51.5065199, "oc_lng": -0.0811197, "oc_formatted": "HMS Belfast, Battle Bridge Lane, London SE1 2JH, United Kingdom" }, "geometry": null },
{ "type": "Feature", "properties": { "placename": "Pitmedden Garden & Museum of Farm Life, Scotland", "oc_lat": 56.0, "oc_lng": -4.0, "oc_formatted": "Scotland, United Kingdom" }, "geometry": null },
{ "type": "Feature", "properties": { "placename": "Clifford's Tower, York, England", "oc_lat": 53.9558294, "oc_lng": -1.0801796, "oc_formatted": "Clifford's Tower, Tower Street, York YO1 9SA, United Kingdom" }, "geometry": null },
{ "type": "Feature", "properties": { "placename": "Fyvie Castle, Scotland", "oc_lat": 57.443475, "oc_lng": -2.3951496, "oc_formatted": "Fyvie Castle, A947, Fyvie AB53 8JU, United Kingdom" }, "geometry": null },
{ "type": "Feature", "properties": { "placename": "Carrick-a-Rede, Northern Ireland", "oc_lat": 54.5, "oc_lng": -6.5, "oc_formatted": "Northern Ireland, United Kingdom" }, "geometry": null },
{ "type": "Feature", "properties": { "placename": "Mar Lodge Estate, Scotland", "oc_lat": 57.0205775, "oc_lng": -3.5879168, "oc_formatted": "Luibeg, Derry Dam Bridge, Aberdeenshire, United Kingdom" }, "geometry": null },
{ "type": "Feature", "properties": { "placename": "Glasgow Cathedral, Scotland", "oc_lat": 55.8630129, "oc_lng": -4.2346182, "oc_formatted": "Glasgow Cathedral, Castle Street, Glasgow G4 0QZ, United Kingdom" }, "geometry": null },
{ "type": "Feature", "properties": { "placename": "WWT Castle Espie, Northern Ireland", "oc_lat": 54.5, "oc_lng": -6.5, "oc_formatted": "Northern Ireland, United Kingdom" }, "geometry": null },
{ "type": "Feature", "properties": { "placename": "Museum of Archaeology and Anthropology, England", "oc_lat": 52.202799, "oc_lng": 0.1209726, "oc_formatted": "Museum of Archaeology and Anthropology, Downing Street, Cambridge CB2 3DZ, United Kingdom" }, "geometry": null },
{ "type": "Feature", "properties": { "placename": "National Museum of Rural Life, Scotland", "oc_lat": 55.7781817, "oc_lng": -4.2205788, "oc_formatted": "National Museum of Rural Life, East Kilbride G76 9ER, United Kingdom" }, "geometry": null },
{ "type": "Feature", "properties": { "placename": "WWT Llanelli, Wales", "oc_lat": 51.68195, "oc_lng": -4.16191, "oc_formatted": "Llanelli, Carmarthenshire, Wales, United Kingdom" }, "geometry": null },
{ "type": "Feature", "properties": { "placename": "Burghley House, England", "oc_lat": 52.6425003, "oc_lng": -0.4523032, "oc_formatted": "Burghley House, Barnack Road, Uffington PE9 3JY, United Kingdom" }, "geometry": null },
{ "type": "Feature", "properties": { "placename": "Piermaster's House, England", "oc_lat": 53.4012776, "oc_lng": -2.9946152, "oc_formatted": "Piermaster's House, Mermaid Courtyard, Liverpool L3 4BB, United Kingdom" }, "geometry": null },
{ "type": "Feature", "properties": { "placename": "People's Palace, Scotland", "oc_lat": 55.8513091, "oc_lng": -4.2369976, "oc_formatted": "People's Palace, Monteith Row, Glasgow G40 1AT, United Kingdom" }, "geometry": null },
{ "type": "Feature", "properties": { "placename": "University Museum of Zoology, England", "oc_lat": 52.16045, "oc_lng": -0.70312, "oc_formatted": "England, United Kingdom" }, "geometry": null },
{ "type": "Feature", "properties": { "placename": "Hermitage, Scotland", "oc_lat": 55.2531686, "oc_lng": -2.7802794, "oc_formatted": "Hermitage TD9 0LY, United Kingdom" }, "geometry": null },
{ "type": "Feature", "properties": { "placename": "Kirkstall Abbey, England", "oc_lat": 53.820657, "oc_lng": -1.6066843, "oc_formatted": "Kirkstall Abbey (Ruins), Abbey Road, Horsforth LS5 3EH, United Kingdom" }, "geometry": null },
{ "type": "Feature", "properties": { "placename": "St Abb's Head, Scotland", "oc_lat": 55.9184885, "oc_lng": -2.1408554, "oc_formatted": "St.Abb's Head TD14 5QF, United Kingdom" }, "geometry": null },
{ "type": "Feature", "properties": { "placename": "Monument to the Great Fire of London, The, London", "oc_lat": 51.5101019, "oc_lng": -0.0859447, "oc_formatted": "The Monument to the Great Fire of London, Bishopsgate, Monument Street, London EC3, United Kingdom" }, "geometry": null },
{ "type": "Feature", "properties": { "placename": "Drum Castle, Scotland", "oc_lat": 57.095028, "oc_lng": -2.3378102, "oc_formatted": "Drum Castle, Woodland Walk, Aberdeenshire AB31 5EY, United Kingdom" }, "geometry": null },
{ "type": "Feature", "properties": { "placename": "Benmore Botanic Garden, Scotland", "oc_lat": 56.0253208, "oc_lng": -4.9925824, "oc_formatted": "Benmore Botanic Gardens, Redwood tree alley, Argyll and Bute PA23 8QX, United Kingdom" }, "geometry": null },
{ "type": "Feature", "properties": { "placename": "Sedgwick Museum of Earth Sciences, England", "oc_lat": 52.203069, "oc_lng": 0.1219693, "oc_formatted": "Sedgwick Museum of Earth Sciences, Downing Street, Cambridge CB2 3EQ, United Kingdom" }, "geometry": null },
{ "type": "Feature", "properties": { "placename": "Guildhall Art Gallery, London", "oc_lat": 51.5155115, "oc_lng": -0.0914071, "oc_formatted": "Guildhall Art Gallery, Barbican, Guildhall Yard, London EC2V 5AE, United Kingdom" }, "geometry": null },
{ "type": "Feature", "properties": { "placename": "Ben Lawers Visitor Centre, Scotland", "oc_lat": 56.5286656, "oc_lng": -4.1528718, "oc_formatted": "Lawers, United Kingdom" }, "geometry": null },
{ "type": "Feature", "properties": { "placename": "Ulster Folk Museum, Northern Ireland", "oc_lat": 54.6474549, "oc_lng": -5.7934966, "oc_formatted": "Ulster Folk Museum, Holywood, Down, Northern Ireland, United Kingdom" }, "geometry": null },
{ "type": "Feature", "properties": { "placename": "National Museum of Flight, Scotland", "oc_lat": 55.9954748, "oc_lng": -2.7203498, "oc_formatted": "National Museum of Flight, Crauchie, East Fortune Circuit, East Lothian EH39 5LF, United Kingdom" }, "geometry": null },
{ "type": "Feature", "properties": { "placename": "History of Science Museum, England", "oc_lat": 52.16045, "oc_lng": -0.70312, "oc_formatted": "England, United Kingdom" }, "geometry": null },
{ "type": "Feature", "properties": { "placename": "Kenwood, England", "oc_lat": 53.716778, "oc_lng": 0.0417917, "oc_formatted": "Kenwood, Withernsea HU19 2PR, United Kingdom" }, "geometry": null },
{ "type": "Feature", "properties": { "placename": "Abbey House Museum, England", "oc_lat": 53.8222574, "oc_lng": -1.6070845, "oc_formatted": "Abbey House Museum, Abbey Walk, Horsforth LS5 3EH, United Kingdom" }, "geometry": null },
{ "type": "Feature", "properties": { "placename": "Leeds City Museum, England", "oc_lat": 53.8015833, "oc_lng": -1.5468996, "oc_formatted": "Leeds City Museum, Arena Quarter, Millennium Square, Leeds LS2 8BH, United Kingdom" }, "geometry": null },
{ "type": "Feature", "properties": { "placename": "Dawyck Botanic Garden, Scotland", "oc_lat": 55.6009486, "oc_lng": -3.3202427, "oc_formatted": "Dawyck Botanic Garden, Beech Walk, Scottish Borders EH45 9JU, United Kingdom" }, "geometry": null },
{ "type": "Feature", "properties": { "placename": "Grey Mare's Tail, Scotland", "oc_lat": 55.0208934, "oc_lng": -4.3627654, "oc_formatted": "Grey Mare's Tail, Dumfries and Galloway DG8 7BL, United Kingdom" }, "geometry": null },
{ "type": "Feature", "properties": { "placename": "Castle Fraser, Scotland", "oc_lat": 57.2030673, "oc_lng": -2.4607494, "oc_formatted": "Castle Fraser, Aberdeenshire AB51 7LD, United Kingdom" }, "geometry": null },
{ "type": "Feature", "properties": { "placename": "Ulster American Folk Park, Northern Ireland", "oc_lat": 54.6594181, "oc_lng": -7.3345093, "oc_formatted": "Ulster American Folk Park, Mellon Road, Tyrone BT78 5NW, United Kingdom" }, "geometry": null },
{ "type": "Feature", "properties": { "placename": "Ulster Transport Museum, Northern Ireland", "oc_lat": 54.5, "oc_lng": -6.5, "oc_formatted": "Northern Ireland, United Kingdom" }, "geometry": null },
{ "type": "Feature", "properties": { "placename": "Inverewe Gardens, Scotland", "oc_lat": 57.7757441, "oc_lng": -5.6025456, "oc_formatted": "Inverewe Garden, A832, Aultbea IV22 2LG, United Kingdom" }, "geometry": null },
{ "type": "Feature", "properties": { "placename": "Leith Hall, Scotland", "oc_lat": 57.3562721, "oc_lng": -2.7648278, "oc_formatted": "Leith Hall, B9002, Kennethmont AB54 4QQ, United Kingdom" }, "geometry": null },
{ "type": "Feature", "properties": { "placename": "Logan Botanic Garden, Scotland", "oc_lat": 54.7418345, "oc_lng": -4.9594673, "oc_formatted": "Logan Botanic Gardens, B7065, Port Logan DG9 9NF, United Kingdom" }, "geometry": null },
{ "type": "Feature", "properties": { "placename": "The St Mungo Museum of Religious Life And Art, Scotland", "oc_lat": 55.8624482, "oc_lng": -4.2363808, "oc_formatted": "St Mungo Museum of Religious Life & Art, Cathedral Precinct, Glasgow G4 0QZ, United Kingdom" }, "geometry": null },
{ "type": "Feature", "properties": { "placename": "WWT Welney, England", "oc_lat": 52.5287581, "oc_lng": 0.2739235, "oc_formatted": "WWT Welney Reserve, Hundred Foot Bank, King's Lynn and West Norfolk PE14 9TN, United Kingdom" }, "geometry": null },
{ "type": "Feature", "properties": { "placename": "Shakespeare's New Place, England", "oc_lat": 53.3868381, "oc_lng": -1.4715206, "oc_formatted": "Shakespeare's, 146-148 Gibraltar Street, Sheffield S3 8UB, United Kingdom" }, "geometry": null },
{ "type": "Feature", "properties": { "placename": "Doune Castle, Scotland", "oc_lat": 56.1850626, "oc_lng": -4.050509, "oc_formatted": "Doune Castle, Castle Hill Court, Doune FK16 6BT, United Kingdom" }, "geometry": null },
{ "type": "Feature", "properties": { "placename": "Scotland Street School Museum, Scotland", "oc_lat": 55.8495203, "oc_lng": -4.2737065, "oc_formatted": "Scotland Street School Museum, Scotland Street, Glasgow G5 8QB, United Kingdom" }, "geometry": null },
{ "type": "Feature", "properties": { "placename": "Sarehole Mill, England", "oc_lat": 52.4343406, "oc_lng": -1.8560754, "oc_formatted": "Sarehole Mill, Cole Bank Road, Billesley B13 0BD, United Kingdom" }, "geometry": null },
{ "type": "Feature", "properties": { "placename": "Brodick Castle & Country Park, Scotland", "oc_lat": 55.5959457, "oc_lng": -5.1495256, "oc_formatted": "Brodick Castle Country Park, Cladach KA27 8HY, United Kingdom" }, "geometry": null },
{ "type": "Feature", "properties": { "placename": "Anne Hathaway's Cottage, England", "oc_lat": 52.1906648, "oc_lng": -1.7315618, "oc_formatted": "Anne Hathaway's Cottage, Cottage Lane, Stratford-upon-Avon CV37 9HH, United Kingdom" }, "geometry": null },
{ "type": "Feature", "properties": { "placename": "Goatfell, Scotland", "oc_lat": 55.6326346, "oc_lng": -5.194648, "oc_formatted": "North Goatfell, North Ayrshire KA27 8JD, United Kingdom" }, "geometry": null },
{ "type": "Feature", "properties": { "placename": "Linlithgow Palace, Scotland", "oc_lat": 55.9787204, "oc_lng": -3.6005574, "oc_formatted": "Linlithgow Palace, Kirkgate, Linlithgow EH49 7EY, United Kingdom" }, "geometry": null },
{ "type": "Feature", "properties": { "placename": "The Polar Museum, England", "oc_lat": 52.1984473, "oc_lng": 0.1262691, "oc_formatted": "The Polar Museum, Lensfield Road, Cambridge CB2 1EN, United Kingdom" }, "geometry": null },
{ "type": "Feature", "properties": { "placename": "Hill House, Scotland", "oc_lat": 56.0170188, "oc_lng": -4.7281149, "oc_formatted": "Hill House, Upper Colquhoun Street, Helensburgh G84 9AH, United Kingdom" }, "geometry": null },
{ "type": "Feature", "properties": { "placename": "Hall's Croft, England", "oc_lat": 52.1885863, "oc_lng": -1.7086412, "oc_formatted": "Hall's Croft, Old Town, Stratford-upon-Avon CV37 6HP, United Kingdom" }, "geometry": null },
{ "type": "Feature", "properties": { "placename": "Greenbank Garden, Scotland", "oc_lat": 55.7817505, "oc_lng": -4.2976602, "oc_formatted": "Greenbank Gardens, Whitecraigs, Clarkston, East Renfrewshire, Scotland, United Kingdom" }, "geometry": null },
{ "type": "Feature", "properties": { "placename": "Tantallon Castle, Scotland", "oc_lat": 56.056491, "oc_lng": -2.6507093, "oc_formatted": "Tantallon Castle, A198, Auldhame EH39 5PW, United Kingdom" }, "geometry": null },
{ "type": "Feature", "properties": { "placename": "Fort George, Scotland", "oc_lat": 57.5838243, "oc_lng": -4.0702707, "oc_formatted": "Fort George, Skinner Road, Highland IV2 7TD, United Kingdom" }, "geometry": null },
{ "type": "Feature", "properties": { "placename": "Provand's Lordship, Scotland", "oc_lat": 55.8623619, "oc_lng": -4.2369249, "oc_formatted": "Provand's Lordship, 3 Castle Street, Glasgow G4 0RB, United Kingdom" }, "geometry": null },
{ "type": "Feature", "properties": { "placename": "Blackness Castle, Scotland", "oc_lat": 56.0060642, "oc_lng": -3.5158315, "oc_formatted": "Blackness Castle, Hope Park, St Ninians Way, Blackness EH49 7NF, United Kingdom" }, "geometry": null },
{ "type": "Feature", "properties": { "placename": "Pollok House, Scotland", "oc_lat": 55.8280608, "oc_lng": -4.3187077, "oc_formatted": "Pollok House, 2060 Pollokshaws Road, Glasgow G43 1AT, United Kingdom" }, "geometry": null },
{ "type": "Feature", "properties": { "placename": "Sudley House, England", "oc_lat": 53.3736047, "oc_lng": -2.9214784, "oc_formatted": "Sudley House, Mossley Hill Road, Liverpool L18 8BX, United Kingdom" }, "geometry": null },
{ "type": "Feature", "properties": { "placename": "Caerlaverock Castle, Scotland", "oc_lat": 54.9756503, "oc_lng": -3.5241084, "oc_formatted": "Caerlaverock Castle, B725, Shearington DG1 4RT, United Kingdom" }, "geometry": null },
{ "type": "Feature", "properties": { "placename": "St Andrews Castle, Scotland", "oc_lat": 56.3422406, "oc_lng": -2.7900274, "oc_formatted": "St Andrews Castle, The Scores, St Andrews KY16 9AR, United Kingdom" }, "geometry": null },
{ "type": "Feature", "properties": { "placename": "WWT Caerlaverock, Scotland", "oc_lat": 54.9766297, "oc_lng": -3.4846678, "oc_formatted": "Nether Locharwoods, WWT Caerlaverock Wetland Centre, B725, Bankend DG1 4NQ, United Kingdom" }, "geometry": null },
{ "type": "Feature", "properties": { "placename": "Melrose Abbey, Scotland", "oc_lat": 55.5993974, "oc_lng": -2.7181594, "oc_formatted": "Melrose Abbey, Annay Road, Melrose TD6 9LW, United Kingdom" }, "geometry": null },
{ "type": "Feature", "properties": { "placename": "Newhailes, Scotland", "oc_lat": 55.9369793, "oc_lng": -3.0856927, "oc_formatted": "Newhailes, Newhailes Road, City of Edinburgh EH21 8QT, United Kingdom" }, "geometry": null },
{ "type": "Feature", "properties": { "placename": "Leeds Industrial Museum at Armley Mills, England", "oc_lat": 53.7792883, "oc_lng": -1.6405828, "oc_formatted": "Leeds, Armley, United Kingdom" }, "geometry": null },
{ "type": "Feature", "properties": { "placename": "Killiecrankie Visitor Centre, Scotland", "oc_lat": 56.7430049, "oc_lng": -3.7721069, "oc_formatted": "Killiecrankie National Trust Visitor Centre, Killiecrankie PH16 5LG, United Kingdom" }, "geometry": null },
{ "type": "Feature", "properties": { "placename": "Craigmillar Castle, Scotland", "oc_lat": 55.9256935, "oc_lng": -3.1406971, "oc_formatted": "Craigmillar Castle, Mains of Craigmillar, City of Edinburgh EH16 4SE, United Kingdom" }, "geometry": null },
{ "type": "Feature", "properties": { "placename": "Bannockburn Heritage Centre, Scotland", "oc_lat": 56.0925474, "oc_lng": -3.9355399, "oc_formatted": "Bannockburn Heritage Centre, Fairhill Road, Stirling FK7 0LL, United Kingdom" }, "geometry": null },
{ "type": "Feature", "properties": { "placename": "Branklyn Garden, Scotland", "oc_lat": 56.388075, "oc_lng": -3.4187831, "oc_formatted": "Branklyn Garden, Dundee Road, Perth PH2 7BB, United Kingdom" }, "geometry": null },
{ "type": "Feature", "properties": { "placename": "Craigievar Castle, Scotland", "oc_lat": 57.1741698, "oc_lng": -2.7181106, "oc_formatted": "Craigievar Castle, A980, Aberdeenshire AB33 8JL, United Kingdom" }, "geometry": null },
{ "type": "Feature", "properties": { "placename": "Geilston Garden, Scotland", "oc_lat": 55.9690904, "oc_lng": -4.6634686, "oc_formatted": "Geilston Garden, Main Road, Cardross G82 5HD, United Kingdom" }, "geometry": null },
{ "type": "Feature", "properties": { "placename": "Skara Brae, Scotland", "oc_lat": 59.0487013, "oc_lng": -3.3417621, "oc_formatted": "Skara Brae, B9056, Quoyloo KW16 3LR, United Kingdom" }, "geometry": null },
{ "type": "Feature", "properties": { "placename": "Aston Hall, England", "oc_lat": 52.5064958, "oc_lng": -1.8846025, "oc_formatted": "Aston Hall, Trinity Road, Aston B6 6JD, United Kingdom" }, "geometry": null },
{ "type": "Feature", "properties": { "placename": "Iona, Scotland", "oc_lat": 56.3289174, "oc_lng": -6.4084008, "oc_formatted": "Iona, The Village, United Kingdom" }, "geometry": null },
{ "type": "Feature", "properties": { "placename": "Temple Newsam, England", "oc_lat": 53.781409, "oc_lng": -1.4448235, "oc_formatted": "Colton LS15 9AJ, United Kingdom" }, "geometry": null },
{ "type": "Feature", "properties": { "placename": "Dirleton Castle, Scotland", "oc_lat": 56.0458678, "oc_lng": -2.7779945, "oc_formatted": "Dirleton Castle, Castlemains Farm Cottages, Dirleton EH39 5EF, United Kingdom" }, "geometry": null },
{ "type": "Feature", "properties": { "placename": "Thwaite Watermill, England", "oc_lat": 53.7762231, "oc_lng": -1.5040427, "oc_formatted": "Thwaite Mills Watermill, Thwaite Lane, Leeds LS10 1RP, United Kingdom" }, "geometry": null },
{ "type": "Feature", "properties": { "placename": "Falkland Palace, Scotland", "oc_lat": 56.2538999, "oc_lng": -3.2060804, "oc_formatted": "Falkland Palace, East Port, Falkland KY15 7BZ, United Kingdom" }, "geometry": null },
{ "type": "Feature", "properties": { "placename": "Aberdour Castle, Scotland", "oc_lat": 56.0552154, "oc_lng": -3.2983793, "oc_formatted": "Aberdour Castle, Castle View, Aberdour KY3 0UF, United Kingdom" }, "geometry": null },
{ "type": "Feature", "properties": { "placename": "Museum of Classical Archaeology, England", "oc_lat": 52.16045, "oc_lng": -0.70312, "oc_formatted": "England, United Kingdom" }, "geometry": null },
{ "type": "Feature", "properties": { "placename": "Barry Mill, Scotland", "oc_lat": 56.5044566, "oc_lng": -2.7584978, "oc_formatted": "Barry Mill, Woodside Cottages, Barry DD7 7RJ, United Kingdom" }, "geometry": null },
{ "type": "Feature", "properties": { "placename": "Georgian House, Scotland", "oc_lat": 55.9524878, "oc_lng": -3.2082145, "oc_formatted": "Georgian House, 7 Charlotte Square, City of Edinburgh EH2 4DR, United Kingdom" }, "geometry": null },
{ "type": "Feature", "properties": { "placename": "St Andrews Cathedral, Scotland", "oc_lat": 57.149056, "oc_lng": -2.0929965, "oc_formatted": "St. Andrews Cathedral, 28 King Street, Aberdeen AB24 5AX, United Kingdom" }, "geometry": null },
{ "type": "Feature", "properties": { "placename": "Torridon Countryside Centre, Scotland", "oc_lat": 57.5465346, "oc_lng": -5.5108229, "oc_formatted": "Torridon, United Kingdom" }, "geometry": null },
{ "type": "Feature", "properties": { "placename": "Blakesley Hall, England", "oc_lat": 52.473444, "oc_lng": -1.8094123, "oc_formatted": "Blakesley Hall, Blakesley Road, Yardley B25 8RN, United Kingdom" }, "geometry": null },
{ "type": "Feature", "properties": { "placename": "Museum of the Jewellery Quarter, England", "oc_lat": 52.490628, "oc_lng": -1.912066, "oc_formatted": "Museum of the Jewellery Quarter, 75-80 Vyse Street, Aston B18 6HA, United Kingdom" }, "geometry": null },
{ "type": "Feature", "properties": { "placename": "Glasgow Museums Resource Centre, Scotland", "oc_lat": 55.861147, "oc_lng": -4.2499891, "oc_formatted": "Glasgow, United Kingdom" }, "geometry": null },
{ "type": "Feature", "properties": { "placename": "Dunblane Cathedral, Scotland", "oc_lat": 56.1894624, "oc_lng": -3.9651468, "oc_formatted": "Dunblane Cathedral, Haining, Dunblane FK15 0AW, United Kingdom" }, "geometry": null },
{ "type": "Feature", "properties": { "placename": "Whipple Museum of the History of Science, England", "oc_lat": 52.2028831, "oc_lng": 0.1194846, "oc_formatted": "Whipple Museum of the History Of Science, Free School Lane, Cambridge CB2 3RH, United Kingdom" }, "geometry": null },
{ "type": "Feature", "properties": { "placename": "Dunstaffnage Castle, Scotland", "oc_lat": 56.4547319, "oc_lng": -5.4374866, "oc_formatted": "Dunstaffnage Castle, Kirk Road, Dunbeg PA37 1QA, United Kingdom" }, "geometry": null },
{ "type": "Feature", "properties": { "placename": "Jedburgh Abbey, Scotland", "oc_lat": 55.4765985, "oc_lng": -2.5551538, "oc_formatted": "Jedburgh Abbey, The Rampart, Jedburgh TD8 6BE, United Kingdom" }, "geometry": null },
{ "type": "Feature", "properties": { "placename": "Tenement House, Scotland", "oc_lat": 55.8681811, "oc_lng": -4.2684296, "oc_formatted": "The Tenement House, 145 Buccleuch Street, Glasgow G3 6QN, United Kingdom" }, "geometry": null },
{ "type": "Feature", "properties": { "placename": "Huntly Castle, Scotland", "oc_lat": 57.4547037, "oc_lng": -2.7819733, "oc_formatted": "Huntly Castle, Marquis Drive, Huntly AB54 4SF, United Kingdom" }, "geometry": null },
{ "type": "Feature", "properties": { "placename": "Elgin Cathedral, Scotland", "oc_lat": 57.6506445, "oc_lng": -3.3053458, "oc_formatted": "Elgin Cathedral, King Street, Elgin IV30 1HU, United Kingdom" }, "geometry": null },
{ "type": "Feature", "properties": { "placename": "Dryburgh Abbey, Scotland", "oc_lat": 55.5772362, "oc_lng": -2.6503274, "oc_formatted": "Dryburgh Abbey, Dryburgh, Scottish Borders, Scotland, United Kingdom" }, "geometry": null },
{ "type": "Feature", "properties": { "placename": "Keats House, London", "oc_lat": 51.5555217, "oc_lng": -0.1679355, "oc_formatted": "Keats House, Keats Grove, London NW3 2RR, United Kingdom" }, "geometry": null },
{ "type": "Feature", "properties": { "placename": "Dumbarton Castle, Scotland", "oc_lat": 55.9366031, "oc_lng": -4.5632192, "oc_formatted": "Dumbarton Castle, Castle Road, Dumbarton G82 1, United Kingdom" }, "geometry": null },
{ "type": "Feature", "properties": { "placename": "Soho House, England", "oc_lat": 52.4995575, "oc_lng": -1.9229503, "oc_formatted": "Soho House Museum, Soho Avenue, Aston B18 5LB, United Kingdom" }, "geometry": null },
{ "type": "Feature", "properties": { "placename": "Dunfermline Abbey, Scotland", "oc_lat": 56.0699085, "oc_lng": -3.4635633, "oc_formatted": "Dunfermline Abbey, St Catherine's Wynd, Dunfermline KY12 7NA, United Kingdom" }, "geometry": null },
{ "type": "Feature", "properties": { "placename": "Inchcolm Abbey, Scotland", "oc_lat": 56.0299791, "oc_lng": -3.3019219, "oc_formatted": "Inchcolm Abbey, Old ammunition tunnel, Fife KY3 0TX, United Kingdom" }, "geometry": null },
{ "type": "Feature", "properties": { "placename": "Inveresk Lodge Garden, Scotland", "oc_lat": 55.9341589, "oc_lng": -3.0447183, "oc_formatted": "Inveresk Lodge Garden, Inveresk Village Road, Inveresk EH21 7TE, United Kingdom" }, "geometry": null },
{ "type": "Feature", "properties": { "placename": "Leeds Discovery Centre, England", "oc_lat": 53.788624, "oc_lng": -1.5307949, "oc_formatted": "Leeds Museums Discovery Centre, Carlisle Road, Leeds LS10 1EE, United Kingdom" }, "geometry": null },
{ "type": "Feature", "properties": { "placename": "Malleny Garden, Scotland", "oc_lat": 55.8852948, "oc_lng": -3.3366036, "oc_formatted": "Malleny Garden, Bavelaw Green, Balerno EH14 7GD, United Kingdom" }, "geometry": null },
{ "type": "Feature", "properties": { "placename": "Broughton House & Garden, Scotland", "oc_lat": 55.9645524, "oc_lng": -3.193666, "oc_formatted": "Broughton House, Dunedin Street, City of Edinburgh EH7 4JG, United Kingdom" }, "geometry": null },
{ "type": "Feature", "properties": { "placename": "Kintail Estate, Scotland", "oc_lat": 56.0, "oc_lng": -4.0, "oc_formatted": "Scotland, United Kingdom" }, "geometry": null },
{ "type": "Feature", "properties": { "placename": "Weoley Castle, England", "oc_lat": 52.4393635, "oc_lng": -1.9746573, "oc_formatted": "Weoley Castle B29 5QP, United Kingdom" }, "geometry": null },
{ "type": "Feature", "properties": { "placename": "Haddo House, Scotland", "oc_lat": 57.4029639, "oc_lng": -2.2204184, "oc_formatted": "Haddo House, Scots Mile, Aberdeenshire AB41 7EQ, United Kingdom" }, "geometry": null },
{ "type": "Feature", "properties": { "placename": "Alloa Tower, Scotland", "oc_lat": 56.1124257, "oc_lng": -3.7883066, "oc_formatted": "Alloa Tower, Scott Crescent, Alloa FK10 1BT, United Kingdom" }, "geometry": null },
{ "type": "Feature", "properties": { "placename": "Preston Mill & Phantassie Doocot, Scotland", "oc_lat": 52.0680937, "oc_lng": -1.9081828, "oc_formatted": "Mill, United Kingdom" }, "geometry": null },
{ "type": "Feature", "properties": { "placename": "Mary Arden's Farm, England", "oc_lat": 52.2219065, "oc_lng": -1.7614738, "oc_formatted": "Mary Arden's House, Aston Cantlow Road, Wilmcote B95 6JS, United Kingdom" }, "geometry": null }
]
}
